[{"OBJECT_NAME":"STARLINK-4647","OBJECT_ID":"2022-104W","EPOCH":"2026-03-09T21:32:09.547008","MEAN_MOTION":15.0884147,"ECCENTRICITY":0.00012734,"INCLINATION":53.2172,"RA_OF_ASC_NODE":233.3809,"ARG_OF_PERICENTER":87.8287,"MEAN_ANOMALY":272.2851,"EPHEMERIS_TYPE":0,"CLASSIFICATION_TYPE":"U","NORAD_CAT_ID":53608,"ELEMENT_SET_NO":999,"REV_AT_EPOCH":19566,"BSTAR":8.3834508e-5,"MEAN_MOTION_DOT":1.047e-5,"MEAN_MOTION_DDOT":0},{"OBJECT_NAME":"FENGYUN 1C DEB","OBJECT_ID":"1999-025ANY","EPOCH":"2026-03-09T08:51:51.179904","MEAN_MOTION":14.80233032,"ECCENTRICITY":0.01316132,"INCLINATION":98.9514,"RA_OF_ASC_NODE":17.5129,"ARG_OF_PERICENTER":213.735,"MEAN_ANOMALY":278.8739,"EPHEMERIS_TYPE":0,"CLASSIFICATION_TYPE":"U","NORAD_CAT_ID":30641,"ELEMENT_SET_NO":999,"REV_AT_EPOCH":1813,"BSTAR":0.00059169636,"MEAN_MOTION_DOT":5.147e-5,"MEAN_MOTION_DDOT":0}]
